{
  "type": "FeatureCollection",
  "features": [
    {
      "type": "Feature",
      "properties": {
        "norad_id": 43286,
        "name": "IRNSS-1I",
        "group": "gnss",
        "lat": -28.653509971080727,
        "lon": -24.368636683474854,
        "alt_km": 35771.90431592765,
        "timestamp": "2025-12-04T13:52:00.686158+00:00",
        "meta_object_name": "IRNSS-1I",
        "meta_object_id": "2018-035A",
        "meta_epoch": "2025-12-02T20:53:40.545024",
        "meta_mean_motion": 1.00271018,
        "meta_eccentricity": 0.00223103,
        "meta_inclination": 29.1259,
        "meta_ra_of_asc_node": 77.2526,
        "meta_arg_of_pericenter": 180.6668,
        "meta_mean_anomaly": 182.6057,
        "meta_ephemeris_type": 0,
        "meta_classification_type": "U",
        "meta_norad_cat_id": 43286,
        "meta_element_set_no": 999,
        "meta_rev_at_epoch": 2811,
        "meta_bstar": 0,
        "meta_mean_motion_dot": 8.7e-07,
        "meta_mean_motion_ddot": 0,
        "tle_line1": "1 43286U 18035A   25336.87060816  .00000087  00000+0  00000+0 0  9998",
        "tle_line2": "2 43286  29.1259  77.2526 0022310 180.6668 182.6057  1.00271018 28116"
      },
      "geometry": {
        "type": "Point",
        "coordinates": [
          -24.368636683474854,
          -28.653509971080727
        ]
      }
    },
    {
      "type": "Feature",
      "properties": {
        "norad_id": 43508,
        "name": "COSMOS 2527 (756)",
        "group": "gnss",
        "lat": -1.2656472312041493,
        "lon": -99.01665380366033,
        "alt_km": 19114.39042876262,
        "timestamp": "2025-12-04T13:52:00.686176+00:00",
        "meta_object_name": "COSMOS 2527 (756)",
        "meta_object_id": "2018-053A",
        "meta_epoch": "2025-12-03T09:39:54.898272",
        "meta_mean_motion": 2.13102029,
        "meta_eccentricity": 0.00086478,
        "meta_inclination": 65.4675,
        "meta_ra_of_asc_node": 80.4438,
        "meta_arg_of_pericenter": 224.1252,
        "meta_mean_anomaly": 135.8021,
        "meta_ephemeris_type": 0,
        "meta_classification_type": "U",
        "meta_norad_cat_id": 43508,
        "meta_element_set_no": 999,
        "meta_rev_at_epoch": 5810,
        "meta_bstar": 0,
        "meta_mean_motion_dot": -2.2e-07,
        "meta_mean_motion_ddot": 0,
        "tle_line1": "1 43508U 18053A   25337.40271873 -.00000022  00000+0  00000+0 0  9992",
        "tle_line2": "2 43508  65.4675  80.4438 0008647 224.1252 135.8021  2.13102029 58109"
      },
      "geometry": {
        "type": "Point",
        "coordinates": [
          -99.01665380366033,
          -1.2656472312041493
        ]
      }
    },
    {
      "type": "Feature",
      "properties": {
        "norad_id": 43539,
        "name": "BEIDOU-2 IGSO-7 (C16)",
        "group": "gnss",
        "lat": -37.63170072031563,
        "lon": 17.265537519161942,
        "alt_km": 35407.27028250004,
        "timestamp": "2025-12-04T13:52:00.686194+00:00",
        "meta_object_name": "BEIDOU-2 IGSO-7 (C16)",
        "meta_object_id": "2018-057A",
        "meta_epoch": "2025-12-03T10:51:14.895936",
        "meta_mean_motion": 1.00259551,
        "meta_eccentricity": 0.00924699,
        "meta_inclination": 55.1728,
        "meta_ra_of_asc_node": 164.7534,
        "meta_arg_of_pericenter": 235.1642,
        "meta_mean_anomaly": 306.8485,
        "meta_ephemeris_type": 0,
        "meta_classification_type": "U",
        "meta_norad_cat_id": 43539,
        "meta_element_set_no": 999,
        "meta_rev_at_epoch": 2716,
        "meta_bstar": 0,
        "meta_mean_motion_dot": -2.5e-07,
        "meta_mean_motion_ddot": 0,
        "tle_line1": "1 43539U 18057A   25337.45225574 -.00000025  00000+0  00000+0 0  9995",
        "tle_line2": "2 43539  55.1728 164.7534 0092469 235.1642 306.8485  1.00259551 27165"
      },
      "geometry": {
        "type": "Point",
        "coordinates": [
          17.265537519161942,
          -37.63170072031563
        ]
      }
    },
    {
      "type": "Feature",
      "properties": {
        "norad_id": 43564,
        "name": "GSAT0221 (GALILEO 25)",
        "group": "gnss",
        "lat": 17.551443606367027,
        "lon": 155.2849341848815,
        "alt_km": 23230.008058207215,
        "timestamp": "2025-12-04T13:52:00.686212+00:00",
        "meta_object_name": "GSAT0221 (GALILEO 25)",
        "meta_object_id": "2018-060A",
        "meta_epoch": "2025-12-01T09:15:23.303232",
        "meta_mean_motion": 1.70475711,
        "meta_eccentricity": 0.00066191,
        "meta_inclination": 57.2301,
        "meta_ra_of_asc_node": 347.1247,
        "meta_arg_of_pericenter": 279.777,
        "meta_mean_anomaly": 80.1905,
        "meta_ephemeris_type": 0,
        "meta_classification_type": "U",
        "meta_norad_cat_id": 43564,
        "meta_element_set_no": 999,
        "meta_rev_at_epoch": 4579,
        "meta_bstar": 0,
        "meta_mean_motion_dot": -5.9e-07,
        "meta_mean_motion_ddot": 0,
        "tle_line1": "1 43564U 18060A   25335.38568638 -.00000059  00000+0  00000+0 0  9995",
        "tle_line2": "2 43564  57.2301 347.1247 0006619 279.7770  80.1905  1.70475711 45792"
      },
      "geometry": {
        "type": "Point",
        "coordinates": [
          155.2849341848815,
          17.551443606367027
        ]
      }
    },
    {
      "type": "Feature",
      "properties": {
        "norad_id": 43565,
        "name": "GSAT0222 (GALILEO 26)",
        "group": "gnss",
        "lat": 20.369031665470075,
        "lon": 0.8841108310363539,
        "alt_km": 23229.801385357776,
        "timestamp": "2025-12-04T13:52:00.686233+00:00",
        "meta_object_name": "GSAT0222 (GALILEO 26)",
        "meta_object_id": "2018-060B",
        "meta_epoch": "2025-12-03T08:45:14.770656",
        "meta_mean_motion": 1.70475396,
        "meta_eccentricity": 0.00061792,
        "meta_inclination": 57.2336,
        "meta_ra_of_asc_node": 347.0741,
        "meta_arg_of_pericenter": 260.8098,
        "meta_mean_anomaly": 99.1565,
        "meta_ephemeris_type": 0,
        "meta_classification_type": "U",
        "meta_norad_cat_id": 43565,
        "meta_element_set_no": 999,
        "meta_rev_at_epoch": 4587,
        "meta_bstar": 0,
        "meta_mean_motion_dot": -6.7e-07,
        "meta_mean_motion_ddot": 0,
        "tle_line1": "1 43565U 18060B   25337.36475429 -.00000067  00000+0  00000+0 0  9990",
        "tle_line2": "2 43565  57.2336 347.0741 0006179 260.8098  99.1565  1.70475396 45874"
      },
      "geometry": {
        "type": "Point",
        "coordinates": [
          0.8841108310363539,
          20.369031665470075
        ]
      }
    },
    {
      "type": "Feature",
      "properties": {
        "norad_id": 43566,
        "name": "GSAT0219 (GALILEO 23)",
        "group": "gnss",
        "lat": -51.541025926393914,
        "lon": -138.74958788132952,
        "alt_km": 23214.094893209203,
        "timestamp": "2025-12-04T13:52:00.686250+00:00",
        "meta_object_name": "GSAT0219 (GALILEO 23)",
        "meta_object_id": "2018-060C",
        "meta_epoch": "2025-12-03T14:03:42.727680",
        "meta_mean_motion": 1.70475586,
        "meta_eccentricity": 0.00058261,
        "meta_inclination": 57.2326,
        "meta_ra_of_asc_node": 347.0697,
        "meta_arg_of_pericenter": 286.7572,
        "meta_mean_anomaly": 73.2143,
        "meta_ephemeris_type": 0,
        "meta_classification_type": "U",
        "meta_norad_cat_id": 43566,
        "meta_element_set_no": 999,
        "meta_rev_at_epoch": 4585,
        "meta_bstar": 0,
        "meta_mean_motion_dot": -6.8e-07,
        "meta_mean_motion_ddot": 0,
        "tle_line1": "1 43566U 18060C   25337.58591120 -.00000068  00000+0  00000+0 0  9993",
        "tle_line2": "2 43566  57.2326 347.0697 0005826 286.7572  73.2143  1.70475586 45850"
      },
      "geometry": {
        "type": "Point",
        "coordinates": [
          -138.74958788132952,
          -51.541025926393914
        ]
      }
    },
    {
      "type": "Feature",
      "properties": {
        "norad_id": 43567,
        "name": "GSAT0220 (GALILEO 24)",
        "group": "gnss",
        "lat": 50.64422443150305,
        "lon": 115.27804789957197,
        "alt_km": 23233.78667734064,
        "timestamp": "2025-12-04T13:52:00.686273+00:00",
        "meta_object_name": "GSAT0220 (GALILEO 24)",
        "meta_object_id": "2018-060D",
        "meta_epoch": "2025-12-01T11:03:06.852672",
        "meta_mean_motion": 1.70475407,
        "meta_eccentricity": 0.00061058,
        "meta_inclination": 57.2328,
        "meta_ra_of_asc_node": 347.128,
        "meta_arg_of_pericenter": 280.6549,
        "meta_mean_anomaly": 79.3184,
        "meta_ephemeris_type": 0,
        "meta_classification_type": "U",
        "meta_norad_cat_id": 43567,
        "meta_element_set_no": 999,
        "meta_rev_at_epoch": 4580,
        "meta_bstar": 0,
        "meta_mean_motion_dot": -5.9e-07,
        "meta_mean_motion_ddot": 0,
        "tle_line1": "1 43567U 18060D   25335.46049598 -.00000059  00000+0  00000+0 0  9996",
        "tle_line2": "2 43567  57.2328 347.1280 0006105 280.6549  79.3184  1.70475407 45809"
      },
      "geometry": {
        "type": "Point",
        "coordinates": [
          115.27804789957197,
          50.64422443150305
        ]
      }
    }
  ]
}